{
 "type": "FeatureCollection",
 "features": [
  {
   "type": "Feature",
   "properties": {
    "id": "high_s",
    "name": "High St",
    "lanes": 4,
    "lanes:forward": 2,
    "lanes:backward": 2,
    "maxspeed": "50",
    "highway": "primary"
   },
   "geometry": {
    "type": "LineString",
    "coordinates": [
     [
      -83.0007,
      39.958505054147636
     ],
     [
      -83.0007,
      39.9612
     ]
    ]
   }
  },
  {
   "type": "Feature",
   "properties": {
    "id": "high_n",
    "name": "High St",
    "lanes": 4,
    "lanes:forward": 2,
    "lanes:backward": 2,
    "maxspeed": "50",
    "highway": "primary"
   },
   "geometry": {
    "type": "LineString",
    "coordinates": [
     [
      -83.0007,
      39.9612
     ],
     [
      -83.0007,
      39.96389494585236
     ]
    ]
   }
  },
  {
   "type": "Feature",
   "properties": {
    "id": "broad_w",
    "name": "Broad St",
    "lanes": 4,
    "lanes:forward": 2,
    "lanes:backward": 2,
    "maxspeed": "50",
    "highway": "primary"
   },
   "geometry": {
    "type": "LineString",
    "coordinates": [
     [
      -83.00421600487398,
      39.9612
     ],
     [
      -83.0007,
      39.9612
     ]
    ]
   }
  },
  {
   "type": "Feature",
   "properties": {
    "id": "broad_e",
    "name": "Broad St",
    "lanes": 4,
    "lanes:forward": 2,
    "lanes:backward": 2,
    "maxspeed": "50",
    "highway": "primary"
   },
   "geometry": {
    "type": "LineString",
    "coordinates": [
     [
      -83.0007,
      39.9612
     ],
     [
      -82.99718399512601,
      39.9612
     ]
    ]
   }
  }
 ]
}